[{"OBJECT_NAME":"STARLINK-36702","OBJECT_ID":"2026-025X","EPOCH":"2026-03-09T22:00:01.999584","MEAN_MOTION":15.75237913,"ECCENTRICITY":0.000144,"INCLINATION":97.2852,"RA_OF_ASC_NODE":180.6414,"ARG_OF_PERICENTER":87.5227,"MEAN_ANOMALY":304.2178,"EPHEMERIS_TYPE":0,"CLASSIFICATION_TYPE":"U","NORAD_CAT_ID":67714,"ELEMENT_SET_NO":999,"REV_AT_EPOCH":569,"BSTAR":-0.00030627167,"MEAN_MOTION_DOT":-0.00045664,"MEAN_MOTION_DDOT":0},{"OBJECT_NAME":"FALCON 9 R\/B","OBJECT_ID":"2024-143C","EPOCH":"2026-03-09T13:25:58.397952","MEAN_MOTION":6.06028808,"ECCENTRICITY":0.47129983,"INCLINATION":62.3836,"RA_OF_ASC_NODE":40.6116,"ARG_OF_PERICENTER":299.732,"MEAN_ANOMALY":21.639,"EPHEMERIS_TYPE":0,"CLASSIFICATION_TYPE":"U","NORAD_CAT_ID":60424,"ELEMENT_SET_NO":999,"REV_AT_EPOCH":3467,"BSTAR":0.0010615048,"MEAN_MOTION_DOT":4.218e-5,"MEAN_MOTION_DDOT":0}]
